[{"OBJECT_NAME":"STARLINK-5922","OBJECT_ID":"2023-037M","EPOCH":"2026-03-09T22:05:41.261280","MEAN_MOTION":14.9833624,"ECCENTRICITY":0.00029721,"INCLINATION":69.9994,"RA_OF_ASC_NODE":303.7996,"ARG_OF_PERICENTER":266.5752,"MEAN_ANOMALY":93.5067,"EPHEMERIS_TYPE":0,"CLASSIFICATION_TYPE":"U","NORAD_CAT_ID":55925,"ELEMENT_SET_NO":999,"REV_AT_EPOCH":16352,"BSTAR":-8.9701454e-5,"MEAN_MOTION_DOT":-1.163e-5,"MEAN_MOTION_DDOT":0},{"OBJECT_NAME":"UNKNOWN","OBJECT_ID":"","EPOCH":"2026-03-04T22:11:39.610464","MEAN_MOTION":14.49090755,"ECCENTRICITY":0.0282259,"INCLINATION":82.0644,"RA_OF_ASC_NODE":144.6703,"ARG_OF_PERICENTER":28.1067,"MEAN_ANOMALY":333.504,"EPHEMERIS_TYPE":0,"CLASSIFICATION_TYPE":"U","NORAD_CAT_ID":89172,"ELEMENT_SET_NO":999,"REV_AT_EPOCH":61378,"BSTAR":0.001137,"MEAN_MOTION_DOT":7.23e-5,"MEAN_MOTION_DDOT":0}]
